NORAD_CAT_ID,OBJECT_NAME,OBJECT_TYPE,EPOCH,MEAN_MOTION,ECCENTRICITY,INCLINATION,RA_OF_ASC_NODE,ARG_OF_PERICENTER,MEAN_ANOMALY,BSTAR,MEAN_MOTION_DOT,MEAN_MOTION_DDOT,TLE_LINE0,TLE_LINE1,TLE_LINE2,SEMIMAJOR_AXIS,PERIOD,APOGEE,PERIGEE,DECAYED
52864.0,STARLINK-4267,PAYLOAD,2023-06-20 01:39:20,15.08834325,0.0001202,53.2161,164.6556,86.8197,273.2933,1.204e-05,-9.6e-07,0.0,0 STARLINK-4267,1 52864U 22062AL  23171.06899270 -.00000096  00000-0  12040-4 0  9999,2 52864  53.2161 164.6556 0001202  86.8197 273.2933 15.08834325 56416,6917.898,95.438,540.594,538.931,0.0
52864.0,STARLINK-4267,PAYLOAD,2023-06-20 09:36:16,15.08836472,0.000119,53.2161,163.1699,85.7922,274.3206,3.9303e-05,3.38e-06,0.0,0 STARLINK-4267,1 52864U 22062AL  23171.40019150  .00000338  00000-0  39303-4 0  9997,2 52864  53.2161 163.1699 0001190  85.7922 274.3206 15.08836472 55978,6917.891,95.438,540.579,538.933,0.0
52864.0,STARLINK-4267,PAYLOAD,2023-06-21 04:40:54,15.08838709,0.0001243,53.2159,159.6012,85.3327,274.7807,1.8149e-05,1e-08,0.0,0 STARLINK-4267,1 52864U 22062AL  23172.19507221  .00000001  00000-0  18149-4 0  9997,2 52864  53.2159 159.6012 0001243  85.3327 274.7807 15.08838709 56582,6917.884,95.438,540.609,538.889,0.0
52864.0,STARLINK-4267,PAYLOAD,2023-06-21 15:48:36,15.08835939,0.0001262,53.2161,157.5205,94.708,265.4057,4.4234e-05,4.16e-06,0.0,0 STARLINK-4267,1 52864U 22062AL  23172.65875372  .00000416  00000-0  44234-4 0  9997,2 52864  53.2161 157.5205 0001262  94.7080 265.4057 15.08835939 56167,6917.893,95.438,540.631,538.885,0.0
52864.0,STARLINK-4267,PAYLOAD,2023-06-22 09:17:50,15.08840185,0.0001241,53.216,154.2493,86.3945,273.7189,7.4765e-05,9.02e-06,0.0,0 STARLINK-4267,1 52864U 22062AL  23173.38739141  .00000902  00000-0  74765-4 0  9993,2 52864  53.2160 154.2493 0001241  86.3945 273.7189 15.08840185 56766,6917.88,95.438,540.603,538.886,0.0
52864.0,STARLINK-4267,PAYLOAD,2023-06-22 15:39:23,15.08834296,0.0001254,53.216,153.0595,86.9297,273.1839,3.1007e-05,2.06e-06,0.0,0 STARLINK-4267,1 52864U 22062AL  23173.65235704  .00000206  00000-0  31007-4 0  9998,2 52864  53.2160 153.0595 0001254  86.9297 273.1839 15.08834296 56803,6917.898,95.438,540.63,538.895,0.0
52864.0,STARLINK-4267,PAYLOAD,2023-06-24 01:02:29,15.0883821,0.0001227,53.2158,146.8143,88.2706,271.8427,3.596e-05,2.84e-06,0.0,0 STARLINK-4267,1 52864U 22062AL  23175.04339582  .00000284  00000-0  35960-4 0  9990,2 52864  53.2158 146.8143 0001227  88.2706 271.8427 15.08838210 57011,6917.886,95.438,540.6,538.902,0.0
52864.0,STARLINK-4267,PAYLOAD,2023-06-25 04:04:02,15.08838187,0.0001217,53.2154,141.7583,89.6652,270.448,4.355e-05,4.05e-06,0.0,0 STARLINK-4267,1 52864U 22062AL  23176.16947735  .00000405  00000-0  43550-4 0  9998,2 52864  53.2154 141.7583 0001217  89.6652 270.4480 15.08838187 57188,6917.886,95.438,540.593,538.909,0.0
52864.0,STARLINK-4267,PAYLOAD,2023-06-26 03:54:49,15.08846026,0.0001221,53.2162,137.2976,90.7236,269.3896,0.00012798,1.75e-05,0.0,0 STARLINK-4267,1 52864U 22062AL  23177.16306968  .00001750  00000-0  12798-3 0  9999,2 52864  53.2162 137.2976 0001221  90.7236 269.3896 15.08846026 57335,6917.862,95.437,540.572,538.882,0.0
52864.0,STARLINK-4267,PAYLOAD,2023-06-27 02:10:14,15.08833436,0.0001226,53.2166,133.1346,97.1935,262.9197,2.4938e-05,1.09e-06,0.0,0 STARLINK-4267,1 52864U 22062AL  23178.09044257  .00000109  00000-0  24938-4 0  9999,2 52864  53.2166 133.1346 0001226  97.1935 262.9197 15.08833436 57476,6917.9,95.438,540.614,538.917,0.0
52864.0,STARLINK-4267,PAYLOAD,2023-06-28 03:36:24,15.08841608,0.0001127,53.2165,128.3779,92.7517,267.3604,4.9363e-05,4.98e-06,0.0,0 STARLINK-4267,1 52864U 22062AL  23179.15027992  .00000498  00000-0  49363-4 0  9994,2 52864  53.2165 128.3779 0001127  92.7517 267.3604 15.08841608 57638,6917.875,95.437,540.52,538.961,0.0
52864.0,STARLINK-4267,PAYLOAD,2023-06-29 06:37:57,15.08842922,0.0001019,53.2167,123.3235,90.1932,269.9177,0.00013372,1.841e-05,0.0,0 STARLINK-4267,1 52864U 22062AL  23180.27635972  .00001841  00000-0  13372-3 0  9995,2 52864  53.2167 123.3235 0001019  90.1932 269.9177 15.08842922 57807,6917.871,95.437,540.441,539.032,0.0
52864.0,STARLINK-4267,PAYLOAD,2023-07-01 01:33:23,15.08833839,0.0001154,53.2171,115.2936,89.7786,270.3339,-3.891e-05,-9.07e-06,0.0,0 STARLINK-4267,1 52864U 22062AL  23182.06485245 -.00000907  00000-0 -38910-4 0  9990,2 52864  53.2171 115.2936 0001154  89.7786 270.3339 15.08833839 58074,6917.899,95.438,540.563,538.966,0.0
52864.0,STARLINK-4267,PAYLOAD,2023-07-02 01:24:09,15.08841217,0.0001051,53.2162,110.8318,88.7108,271.4005,1.7864e-05,-3e-08,0.0,0 STARLINK-4267,1 52864U 22062AL  23183.05844877 -.00000003  00000-0  17864-4 0  9991,2 52864  53.2162 110.8318 0001051  88.7108 271.4005 15.08841217 58220,6917.877,95.437,540.469,539.015,0.0
52864.0,STARLINK-4267,PAYLOAD,2023-07-03 01:14:56,15.08847514,0.0001096,53.2166,106.3726,83.7595,276.3522,0.0001575,2.22e-05,0.0,0 STARLINK-4267,1 52864U 22062AL  23184.05204120  .00002220  00000-0  15750-3 0  9996,2 52864  53.2166 106.3726 0001096  83.7595 276.3522 15.08847514 58371,6917.857,95.437,540.481,538.964,0.0
52864.0,STARLINK-4267,PAYLOAD,2023-07-03 12:22:39,15.08839016,0.0001476,53.2173,104.2915,74.2029,285.9126,8.2477e-05,1.025e-05,0.0,0 STARLINK-4267,1 52864U 22062AL  23184.51572934  .00001025  00000-0  82477-4 0  9991,2 52864  53.2173 104.2915 0001476  74.2029 285.9126 15.08839016 58447,6917.883,95.438,540.769,538.727,0.0
52864.0,STARLINK-4267,PAYLOAD,2023-07-05 00:56:30,15.08851146,0.000124,53.2173,97.4519,84.7668,275.3466,7.7337e-05,9.44e-06,0.0,0 STARLINK-4267,1 52864U 22062AL  23186.03924121  .00000944  00000-0  77337-4 0  9997,2 52864  53.2173  97.4519 0001240  84.7668 275.3466 15.08851146 58677,6917.846,95.437,540.569,538.854,0.0
52864.0,STARLINK-4267,PAYLOAD,2023-07-06 00:47:18,15.0883593,0.0001209,53.217,92.9911,81.2537,278.8592,0.00010439,1.374e-05,0.0,0 STARLINK-4267,1 52864U 22062AL  23187.03285156  .00001374  00000-0  10439-3 0  9993,2 52864  53.2170  92.9911 0001209  81.2537 278.8592 15.08835930 58820,6917.893,95.438,540.594,538.921,0.0
52864.0,STARLINK-4267,PAYLOAD,2023-07-07 00:38:04,15.08846497,0.0001108,53.2167,88.5306,83.9097,276.2021,9.1548e-05,1.17e-05,0.0,0 STARLINK-4267,1 52864U 22062AL  23188.02644637  .00001170  00000-0  91548-4 0  9991,2 52864  53.2167  88.5306 0001108  83.9097 276.2021 15.08846497 58978,6917.861,95.437,540.492,538.959,0.0
52864.0,STARLINK-4267,PAYLOAD,2023-07-07 11:45:47,15.08841134,9.23e-05,53.2169,86.4502,78.8939,281.2157,0.00013561,1.871e-05,0.0,0 STARLINK-4267,1 52864U 22062AL  23188.49012965  .00001871  00000-0  13561-3 0  9991,2 52864  53.2169  86.4502 0000923  78.8939 281.2157 15.08841134 59045,6917.877,95.437,540.38,539.103,0.0
52864.0,STARLINK-4267,PAYLOAD,2023-07-08 10:01:13,15.08793931,0.0001436,53.2166,82.2875,98.3716,261.7439,0.00073218,0.00011369,0.0,0 STARLINK-4267,1 52864U 22062AL  23189.41751596  .00011369  00000-0  73218-3 0  9992,2 52864  53.2166  82.2875 0001436  98.3716 261.7439 15.08793931 59181,6918.021,95.44,540.88,538.893,0.0
52864.0,STARLINK-4267,PAYLOAD,2023-07-08 19:33:30,15.08835484,0.0001079,53.2168,80.5031,86.5587,273.5528,5.257e-05,5.49e-06,0.0,0 STARLINK-4267,1 52864U 22062AL  23189.81493836  .00000549  00000-0  52570-4 0  9993,2 52864  53.2168  80.5031 0001079  86.5587 273.5528 15.08835484 59243,6917.894,95.438,540.506,539.013,0.0
52864.0,STARLINK-4267,PAYLOAD,2023-07-09 22:35:04,15.08836214,0.0001203,53.2167,75.448,82.8477,277.2652,0.00011622,1.562e-05,0.0,0 STARLINK-4267,1 52864U 22062AL  23190.94101863  .00001562  00000-0  11622-3 0  9993,2 52864  53.2167  75.4480 0001203  82.8477 277.2652 15.08836214 59419,6917.892,95.438,540.589,538.925,0.0
52864.0,STARLINK-4267,PAYLOAD,2023-07-10 22:25:50,15.0884754,0.0001269,53.2168,70.9871,83.7114,276.4023,0.00018044,2.586e-05,0.0,0 STARLINK-4267,1 52864U 22062AL  23191.93461036  .00002586  00000-0  18044-3 0  9996,2 52864  53.2168  70.9871 0001269  83.7114 276.4023 15.08847540 59567,6917.857,95.437,540.6,538.844,0.0
52864.0,STARLINK-4267,PAYLOAD,2023-07-11 19:05:51,15.08840802,0.0001225,53.2169,67.1214,84.0604,276.0528,7.503e-05,9.06e-06,0.0,0 STARLINK-4267,1 52864U 22062AL  23192.79573633  .00000906  00000-0  75030-4 0  9991,2 52864  53.2169  67.1214 0001225  84.0604 276.0528 15.08840802 59691,6917.878,95.438,540.59,538.895,0.0
52864.0,STARLINK-4267,PAYLOAD,2023-07-13 15:36:39,15.08846032,0.0001047,53.2163,58.7956,89.6069,270.5044,-0.00013518,-2.439e-05,0.0,0 STARLINK-4267,1 52864U 22062AL  23194.65046071 -.00002439  00000-0 -13518-3 0  9996,2 52864  53.2163  58.7956 0001047  89.6069 270.5044 15.08846032 59976,6917.862,95.437,540.451,539.003,0.0
52864.0,STARLINK-4267,PAYLOAD,2023-07-14 17:02:50,15.08837251,0.0001071,53.2172,54.0368,88.6852,271.4263,6.0731e-05,6.79e-06,0.0,0 STARLINK-4267,1 52864U 22062AL  23195.71030210  .00000679  00000-0  60731-4 0  9994,2 52864  53.2172  54.0368 0001071  88.6852 271.4263 15.08837251 60134,6917.889,95.438,540.495,539.013,0.0
52864.0,STARLINK-4267,PAYLOAD,2023-07-15 16:53:35,15.08851501,0.000107,53.2172,49.5762,102.4663,257.6449,0.00022855,3.353e-05,0.0,0 STARLINK-4267,1 52864U 22062AL  23196.70388870  .00003353  00000-0  22855-3 0  9998,2 52864  53.2172  49.5762 0001070 102.4663 257.6449 15.08851501 60287,6917.845,95.437,540.45,538.97,0.0
52864.0,STARLINK-4267,PAYLOAD,2023-07-16 07:12:04,15.08850356,0.0001195,53.2174,46.9005,78.631,281.4816,0.00014239,1.98e-05,0.0,0 STARLINK-4267,1 52864U 22062AL  23197.30004931  .00001980  00000-0  14239-3 0  9999,2 52864  53.2174  46.9005 0001195  78.6310 281.4816 15.08850356 60371,6917.849,95.437,540.54,538.887,0.0
52864.0,STARLINK-4267,PAYLOAD,2023-07-16 19:55:10,15.08837215,0.0002032,53.2157,44.5222,82.2368,277.8855,-8.3606e-05,-1.619e-05,0.0,0 STARLINK-4267,1 52864U 22062AL  23197.82997774 -.00001619  00000-0 -83606-4 0  9998,2 52864  53.2157  44.5222 0002032  82.2368 277.8855 15.08837215 60452,6917.889,95.438,541.16,538.348,0.0
